[{"OBJECT_NAME":"STARLINK-3883","OBJECT_ID":"2022-049AU","EPOCH":"2026-03-09T23:08:10.628160","MEAN_MOTION":15.08836528,"ECCENTRICITY":0.00014296,"INCLINATION":53.2183,"RA_OF_ASC_NODE":47.888,"ARG_OF_PERICENTER":88.6984,"MEAN_ANOMALY":271.4172,"EPHEMERIS_TYPE":0,"CLASSIFICATION_TYPE":"U","NORAD_CAT_ID":52493,"ELEMENT_SET_NO":999,"REV_AT_EPOCH":21243,"BSTAR":-6.0357667e-5,"MEAN_MOTION_DOT":-1.248e-5,"MEAN_MOTION_DDOT":0},{"OBJECT_NAME":"PSLV R\/B","OBJECT_ID":"2010-035F","EPOCH":"2026-03-09T21:32:02.806944","MEAN_MOTION":15.11637156,"ECCENTRICITY":0.00120112,"INCLINATION":97.9796,"RA_OF_ASC_NODE":355.2302,"ARG_OF_PERICENTER":197.9598,"MEAN_ANOMALY":162.1208,"EPHEMERIS_TYPE":0,"CLASSIFICATION_TYPE":"U","NORAD_CAT_ID":36800,"ELEMENT_SET_NO":999,"REV_AT_EPOCH":85407,"BSTAR":0.00037264097,"MEAN_MOTION_DOT":6.275e-5,"MEAN_MOTION_DDOT":0}]
